DELTA 2 R/B(1)          
1 20453U 90008B   26092.92395997  .00112027  00000+0  11769-2 0  9991
2 20453  35.6042  15.4276 0076544 126.7009 234.0790 15.59354559929918
COSMOS 2058             
1 20465U 90010A   26092.87891798  .00008167  00000+0  47959-3 0  9991
2 20465  82.4722  23.5939 0007818 245.0098 115.0321 15.11563160945894
SL-14 R/B               
1 20466U 90010B   26092.90007318  .00000805  00000+0  94605-4 0  9995
2 20466  82.5004 244.6412 0018916 216.7350 143.2570 14.83594041932073
SL-14 R/B               
1 20511U 90018B   26092.53605057  .00000551  00000+0  66144-4 0  9992
2 20511  82.5241 200.8062 0016578  18.5495 341.6320 14.82169070926116
HST                     
1 20580U 90037B   26092.69080411  .00009880  00000+0  32385-3 0  9990
2 20580  28.4721 236.2244 0002065  42.6057 317.4699 15.29872856776991
SL-16 R/B               
1 20625U 90046B   26092.87377815  .00000086  00000+0  68918-4 0  9998
2 20625  70.9985 247.1180 0016511 268.1996  91.7236 14.15018920851815
COSMOS 2084             
1 20663U 90055A   26092.82933544  .00005008  00000+0  35672-3 0  9991
2 20663  62.7895 253.2346 0013198 198.1971 161.8659 15.05798691939951
SL-6 R/B(2)             
1 20666U 90055D   26092.91162215  .00003144  00000+0  24068-3 0  9999
2 20666  62.7831 171.4732 0028775 352.4487   7.6175 15.03717154941831
SL-8 R/B                
1 20775U 90078B   26092.89457047  .00018989  00000+0  56307-3 0  9996
2 20775  82.9038 229.5266 0357643 292.3147  64.0523 14.89782666812908
SL-8 R/B                
1 21088U 91006B   26092.90731536  .00000145  00000+0  13063-3 0  9993
2 21088  82.9437 152.0403 0021528 330.5896 201.4575 13.77498374767402
OKEAN-3                 
1 21397U 91039A   26092.88220793  .00004777  00000+0  33473-3 0  9999
2 21397  82.5151 313.4014 0012667 247.5191 112.4695 15.04952572868676
COSMOS 2151             
1 21422U 91042A   26092.96266488  .00003582  00000+0  28406-3 0  9995
2 21422  82.4954  60.2545 0011834 346.4400  13.6504 15.00216741866832
SL-14 R/B               
1 21423U 91042B   26092.52665083  .00000581  00000+0  70442-4 0  9996
2 21423  82.4959 197.8354 0017610 158.3228 201.8736 14.81854302856600
ERS-1                   
1 21574U 91050A   26092.95652804  .00000497  00000+0  17323-3 0  9990
2 21574  98.7859 111.7994 0032883 129.1516 231.2602 14.39469001819223
ARIANE 40 R/B           
1 21610U 91050F   26092.88040894  .00000468  00000+0  15251-3 0  9999
2 21610  98.1961 144.2031 0003250  25.3210 334.8139 14.42912181822482
INTERCOSMOS 25          
1 21819U 91086A   26092.92603766  .00002546  00000+0  49337-3 0  9998
2 21819  82.6000 295.3547 1486374  64.7145 310.0361 12.12086241499625
SL-8 R/B                
1 21876U 92008B   26092.94721000  .00000018  00000+0  24056-5 0  9995
2 21876  82.9240 249.7288 0035837  67.9376  45.8319 13.75969799712752
SL-8 R/B                
1 21938U 92020B   26092.86407764  .00000041  00000+0  27093-4 0  9996
2 21938  82.9294 135.8115 0027966 228.2428 303.9574 13.75550693704456
USA 81                  
1 21949U 92023A   26092.82951080  .00000245  00000+0  83459-4 0  9996
2 21949  85.0040 117.5089 0001584  69.3729 290.7633 14.32376210 98241
COSMOS 2219             
1 22219U 92076A   26092.92562871 -.00000174  00000+0 -66593-4 0  9995
2 22219  71.0610 327.4085 0017724 170.5046 189.6416 14.14089208721806
SL-16 R/B               
1 22220U 92076B   26092.86324781 -.00000161  00000+0 -56572-4 0  9998
2 22220  70.9987 137.4560 0010861  51.7024 119.5944 14.16862892725252
COSMOS 2221             
1 22236U 92080A   26092.91320408  .00003700  00000+0  32437-3 0  9991
2 22236  82.5010 255.8698 0015678 109.7517 250.5397 14.96310694784411
SL-16 R/B               
1 22285U 92093B   26092.90864630 -.00000011  00000+0  18645-4 0  9997
2 22285  71.0223 313.4263 0006630 270.4966  89.5397 14.15456110716583
COSMOS 2228             
1 22286U 92094A   26092.91334365  .00003913  00000+0  33416-3 0  9992
2 22286  82.5198 214.1173 0017154 216.5065 143.4989 14.97324794779682
SL-16 R/B               
1 22566U 93016B   26092.88083066  .00000305  00000+0  18120-3 0  9990
2 22566  71.0074 164.3764 0012365 283.1232  76.8511 14.15307575705593
COSMOS 2242             
1 22626U 93024A   26092.43806054  .00003573  00000+0  31042-3 0  9995
2 22626  82.5170 243.9944 0015379 221.8663 138.1384 14.96658579783940
SL-16 R/B               
1 22803U 93059B   26092.89798166  .00000003  00000+0  25014-4 0  9992
2 22803  70.9908 320.0789 0017145 180.8404 179.2694 14.17234592682969
ARIANE 40 R/B           
1 22830U 93061H   26092.92966630  .00000330  00000+0  13644-3 0  9990
2 22830  98.4872 161.3337 0010277 206.5029 153.5631 14.32874622697577
COSMOS 2278             
1 23087U 94023A   26092.78520207 -.00000053  00000+0 -27526-5 0  9994
2 23087  71.0507 124.6876 0009312 337.3869  22.6842 14.14374693648217
SL-16 R/B               
1 23088U 94023B   26092.96220965  .00000228  00000+0  14235-3 0  9996
2 23088  71.0030  19.9113 0005558 264.2120  95.8369 14.15018968649527
SL-16 R/B               
1 23343U 94074B   26092.82503336  .00000578  00000+0  84048-4 0  9995
2 23343  97.7072 122.6616 0007614 134.1055  39.2053 14.79435927690817
SL-16 R/B               
1 23405U 94077B   26092.93433729 -.00000183  00000+0 -69184-4 0  9995
2 23405  70.9823 301.4844 0001656 191.8319 168.2765 14.15568453619664
ARIANE 40+ R/B          
1 23561U 95021B   26092.95327446  .00000455  00000+0  15890-3 0  9992
2 23561  98.4455 164.1021 0007863  74.0679  99.1100 14.39790829622738
SL-16 R/B               
1 23705U 95058B   26092.37717199 -.00000120  00000+0 -37307-4 0  9995
2 23705  71.0194 130.5263 0010239  82.2364 277.9921 14.15497952571200
SL-16 R/B               
1 24298U 96051B   26092.39530476  .00000154  00000+0  10990-3 0  9993
2 24298  70.7582 125.0648 0013209 109.2675 250.9874 14.12422837524995
ORBVIEW 2 (SEASTAR)     
1 24883U 97037A   26092.95286510  .00000430  00000+0  16565-3 0  9998
2 24883  98.8608 257.9130 0002140  17.3412 342.7845 14.35512969511957
SL-16 R/B               
1 25400U 98043G   26092.58708523  .00000085  00000+0  54471-4 0  9999
2 25400  98.8295  46.1259 0009017 309.6195  50.4188 14.26055448442398
SL-16 R/B               
1 25407U 98045B   26092.80026336 -.00000005  00000+0  21634-4 0  9996
2 25407  71.0091 130.8724 0008183 332.4015  27.6673 14.16193287430517
ISS (ZARYA)             
1 25544U 98067A   26092.84326290  .00011825  00000+0  22447-3 0  9991
2 25544  51.6328 312.9475 0006235 264.7845  95.2432 15.48729122560074
CZ-4B R/B               
1 25732U 99025C   26092.88533352  .00000091  00000+0  65030-4 0  9997
2 25732  98.6575 136.5883 0035968 275.3948 257.0985 14.18270341391598
OKEAN-O                 
1 25860U 99039A   26092.91768026  .00001066  00000+0  14651-3 0  9991
2 25860  97.9391 152.5568 0000914 101.4956 258.6359 14.80376548437977
SL-16 R/B               
1 25861U 99039B   26092.87479427  .00000936  00000+0  12535-3 0  9995
2 25861  97.9915 151.9292 0014951 173.7488 186.3914 14.81766630440441
DELTA 2 R/B             
1 25876U 99041E   26092.58137671  .00000813  00000+0  17038-3 0  9991
2 25876  51.7608 205.8385 0502636  58.8851 306.0393 14.11892754366400
HELIOS 1B               
1 25977U 99064A   26092.65725830  .00002151  00000+0  24193-3 0  9993
2 25977  98.1673 355.6027 0001592  45.4257 314.7088 14.87792668688829
TERRA                   
1 25994U 99068A   26092.91190221  .00000691  00000+0  14976-3 0  9990
2 25994  97.9542 145.4152 0003661 101.6649  70.5638 14.61041892398614
SL-16 R/B               
1 26070U 00006B   26092.96327352  .00000176  00000+0  11345-3 0  9997
2 26070  71.0036  46.7943 0015338 151.7633 208.4325 14.15830597351997
TITAN 4B R/B            
1 26474U 00047B   26092.94512159  .00006172  00000+0  38200-3 0  9990
2 26474  67.9907 332.2964 0040171   6.9608 353.2090 15.09792145396579
ENVISAT                 
1 27386U 02009A   26092.86914763  .00000149  00000+0  62188-4 0  9992
2 27386  98.3769  45.8968 0001202  82.2037 291.3890 14.39045523262656
IDEFIX & ARIANE 42P R/B 
1 27422U 02021B   26092.82786825  .00000439  00000+0  18323-3 0  9992
2 27422  98.5898  31.1497 0012824 113.8354 246.4175 14.31043524247473
AQUA                    
1 27424U 02022A   26092.91505510  .00001582  00000+0  32504-3 0  9992
2 27424  98.4216  60.7289 0001328 115.9580 320.2119 14.62035894272276
CZ-4B R/B               
1 27432U 02024C   26092.93161069  .00000086  00000+0  67509-4 0  9994
2 27432  98.8785 146.2104 0049304 315.0197 217.2099 14.14552206232668
MIDORI II (ADEOS-II)    
1 27597U 02056A   26092.88518451  .00000494  00000+0  21211-3 0  9998
2 27597  98.7811  51.5364 0000474  21.5280 338.5921 14.29304650213756
H-2A R/B                
1 27601U 02056E   26092.92458583  .00000494  00000+0  18696-3 0  9991
2 27601  98.3246  52.3738 0071432  89.3696 338.6075 14.33778502217581
CZ-4B R/B               
1 28059U 03049C   26092.93350125  .00000574  00000+0  14275-3 0  9994
2 28059  98.6896  88.7934 0048596 156.4681 203.8753 14.55043253190127
CZ-2C R/B               
1 28222U 04012C   26092.63572758  .00070965  00000+0  64756-3 0  9992
2 28222  97.7172 160.2446 0013510 215.5005 144.5357 15.67539256208022
SL-16 R/B               
1 28353U 04021B   26092.71146074  .00000369  00000+0  21667-3 0  9999
2 28353  71.0011 182.0825 0005285 339.8426  20.2486 14.14598383126236
CZ-4B R/B               
1 28415U 04035C   26092.33416415  .00011245  00000+0  39052-3 0  9992
2 28415  97.3455 126.2948 0030189 242.9987 116.8171 15.29486524183529
CZ-2C R/B               
1 28480U 04046B   26092.74645201  .00000204  00000+0  90298-4 0  9991
2 28480  98.1977   6.2315 0140637  83.7867 277.9315 14.27001230111931
ARIANE 5 R/B            
1 28499U 04049H   26092.95230036  .00001366  00000+0  15678-3 0  9991
2 28499  98.2662 262.3239 0082819 272.4925  86.6809 14.85314239149396
